ONEWEB-0516             
1 54134U 22138X   24164.86157161 -.00000026  00000+0 -96420-4 0  9999
2 54134  87.9158  91.1120 0002185  79.1046 281.0333 13.19729453 79970
ONEWEB-0517             
1 54135U 22138Y   24164.84104521  .00000041  00000+0  71133-4 0  9999
2 54135  87.9150  91.1013 0001824  92.3614 267.7727 13.19723990 79979
ONEWEB-0518             
1 54136U 22138Z   24164.85999930 -.00000070  00000+0 -20622-3 0  9997
2 54136  87.9157  91.1105 0002040  83.1778 276.9587 13.19723927 79975
ONEWEB-0519             
1 54137U 22138AA  24164.80945235  .00000108  00000+0  23747-3 0  9993
2 54137  87.9150  91.1034 0002256  90.7612 269.3779 13.19724715 79975
ONEWEB-0520             
1 54138U 22138AB  24164.84420677  .00000059  00000+0  11445-3 0  9993
2 54138  87.9149  91.0992 0002569  84.8022 275.3404 13.19725072 79960
ONEWEB-0521             
1 54139U 22138AC  24164.80156300  .00000071  00000+0  14402-3 0  9999
2 54139  87.9149  91.1008 0001834  83.8069 276.3272 13.19725495 79901
ONEWEB-0522             
1 54140U 22138AD  24164.85684910  .00000005  00000+0 -18857-4 0  9996
2 54140  87.9147  91.0915 0002173  78.7809 281.3568 13.19725341 79958
ONEWEB-0523             
1 54141U 22138AE  24164.79566387  .00000080  00000+0  16384-3 0  9991
2 54141  87.9218  60.5563 0001258  55.6437 304.4815 13.20773348 82365
ONEWEB-0524             
1 54142U 22138AF  24164.78462531  .00000005  00000+0 -20044-4 0  9994
2 54142  87.9219  60.5619 0002339  50.6431 309.4909 13.20771671 82365
ONEWEB-0525             
1 54143U 22138AG  24164.79998417  .00000060  00000+0  11744-3 0  9999
2 54143  87.9151  91.1116 0002361  84.2320 275.9082 13.19725514 79962
ONEWEB-0526             
1 54144U 22138AH  24164.83315622  .00000045  00000+0  80630-4 0  9990
2 54144  87.9149  91.1002 0002202  78.5377 281.6003 13.19724734 79944
ONEWEB-0529             
1 54145U 22138AJ  24164.83631505  .00000039  00000+0  65435-4 0  9991
2 54145  87.9157  91.1142 0002442  82.3749 277.7661 13.19724723 79967
ONEWEB-0531             
1 54146U 22138AK  24164.77041441 -.00000077  00000+0 -22039-3 0  9995
2 54146  87.9220  60.5555 0001625  42.8019 317.3241 13.20772630 82365
ONEWEB-0535             
1 54147U 22138AL  24164.86948471  .00000009  00000+0 -10823-4 0  9998
2 54147  87.9148  91.0912 0001837  72.2372 287.8961 13.19727791 79985
ONEWEB-0536             
1 54148U 22138AM  24164.75779880  .00000010  00000+0 -71962-5 0  9997
2 54148  87.9218  60.6071 0001003  54.5118 305.6109 13.20772687 82352
