[{"OBJECT_NAME":"ONEWEB-0516","OBJECT_ID":"2022-138X","EPOCH":"2024-06-12T20:40:39.787104","MEAN_MOTION":13.19729453,"ECCENTRICITY":0.0002185,"INCLINATION":87.9158,"RA_OF_ASC_NODE":91.112,"ARG_OF_PERICENTER":79.1046,"MEAN_ANOMALY":281.0333,"EPHEMERIS_TYPE":0,"CLASSIFICATION_TYPE":"U","NORAD_CAT_ID":54134,"ELEMENT_SET_NO":999,"REV_AT_EPOCH":7997,"BSTAR":-9.642e-5,"MEAN_MOTION_DOT":-2.6e-7,"MEAN_MOTION_DDOT":0},{"OBJECT_NAME":"ONEWEB-0517","OBJECT_ID":"2022-138Y","EPOCH":"2024-06-12T20:11:06.306144","MEAN_MOTION":13.1972399,"ECCENTRICITY":0.0001824,"INCLINATION":87.915,"RA_OF_ASC_NODE":91.1013,"ARG_OF_PERICENTER":92.3614,"MEAN_ANOMALY":267.7727,"EPHEMERIS_TYPE":0,"CLASSIFICATION_TYPE":"U","NORAD_CAT_ID":54135,"ELEMENT_SET_NO":999,"REV_AT_EPOCH":7997,"BSTAR":7.1133e-5,"MEAN_MOTION_DOT":4.1e-7,"MEAN_MOTION_DDOT":0},{"OBJECT_NAME":"ONEWEB-0518","OBJECT_ID":"2022-138Z","EPOCH":"2024-06-12T20:38:23.939520","MEAN_MOTION":13.19723927,"ECCENTRICITY":0.000204,"INCLINATION":87.9157,"RA_OF_ASC_NODE":91.1105,"ARG_OF_PERICENTER":83.1778,"MEAN_ANOMALY":276.9587,"EPHEMERIS_TYPE":0,"CLASSIFICATION_TYPE":"U","NORAD_CAT_ID":54136,"ELEMENT_SET_NO":999,"REV_AT_EPOCH":7997,"BSTAR":-0.00020622,"MEAN_MOTION_DOT":-7.0e-7,"MEAN_MOTION_DDOT":0},{"OBJECT_NAME":"ONEWEB-0519","OBJECT_ID":"2022-138AA","EPOCH":"2024-06-12T19:25:36.683040","MEAN_MOTION":13.19724715,"ECCENTRICITY":0.0002256,"INCLINATION":87.915,"RA_OF_ASC_NODE":91.1034,"ARG_OF_PERICENTER":90.7612,"MEAN_ANOMALY":269.3779,"EPHEMERIS_TYPE":0,"CLASSIFICATION_TYPE":"U","NORAD_CAT_ID":54137,"ELEMENT_SET_NO":999,"REV_AT_EPOCH":7997,"BSTAR":0.00023747,"MEAN_MOTION_DOT":1.08e-6,"MEAN_MOTION_DDOT":0},{"OBJECT_NAME":"ONEWEB-0520","OBJECT_ID":"2022-138AB","EPOCH":"2024-06-12T20:15:39.464928","MEAN_MOTION":13.19725072,"ECCENTRICITY":0.0002569,"INCLINATION":87.9149,"RA_OF_ASC_NODE":91.0992,"ARG_OF_PERICENTER":84.8022,"MEAN_ANOMALY":275.3404,"EPHEMERIS_TYPE":0,"CLASSIFICATION_TYPE":"U","NORAD_CAT_ID":54138,"ELEMENT_SET_NO":999,"REV_AT_EPOCH":7996,"BSTAR":0.00011445,"MEAN_MOTION_DOT":5.9e-7,"MEAN_MOTION_DDOT":0},{"OBJECT_NAME":"ONEWEB-0521","OBJECT_ID":"2022-138AC","EPOCH":"2024-06-12T19:14:15.043200","MEAN_MOTION":13.19725495,"ECCENTRICITY":0.0001834,"INCLINATION":87.9149,"RA_OF_ASC_NODE":91.1008,"ARG_OF_PERICENTER":83.8069,"MEAN_ANOMALY":276.3272,"EPHEMERIS_TYPE":0,"CLASSIFICATION_TYPE":"U","NORAD_CAT_ID":54139,"ELEMENT_SET_NO":999,"REV_AT_EPOCH":7990,"BSTAR":0.00014402,"MEAN_MOTION_DOT":7.1e-7,"MEAN_MOTION_DDOT":0},{"OBJECT_NAME":"ONEWEB-0522","OBJECT_ID":"2022-138AD","EPOCH":"2024-06-12T20:33:51.762240","MEAN_MOTION":13.19725341,"ECCENTRICITY":0.0002173,"INCLINATION":87.9147,"RA_OF_ASC_NODE":91.0915,"ARG_OF_PERICENTER":78.7809,"MEAN_ANOMALY":281.3568,"EPHEMERIS_TYPE":0,"CLASSIFICATION_TYPE":"U","NORAD_CAT_ID":54140,"ELEMENT_SET_NO":999,"REV_AT_EPOCH":7995,"BSTAR":-1.8857e-5,"MEAN_MOTION_DOT":5.0e-8,"MEAN_MOTION_DDOT":0},{"OBJECT_NAME":"ONEWEB-0523","OBJECT_ID":"2022-138AE","EPOCH":"2024-06-12T19:05:45.358368","MEAN_MOTION":13.20773348,"ECCENTRICITY":0.0001258,"INCLINATION":87.9218,"RA_OF_ASC_NODE":60.5563,"ARG_OF_PERICENTER":55.6437,"MEAN_ANOMALY":304.4815,"EPHEMERIS_TYPE":0,"CLASSIFICATION_TYPE":"U","NORAD_CAT_ID":54141,"ELEMENT_SET_NO":999,"REV_AT_EPOCH":8236,"BSTAR":0.00016384,"MEAN_MOTION_DOT":8.0e-7,"MEAN_MOTION_DDOT":0},{"OBJECT_NAME":"ONEWEB-0524","OBJECT_ID":"2022-138AF","EPOCH":"2024-06-12T18:49:51.626784","MEAN_MOTION":13.20771671,"ECCENTRICITY":0.0002339,"INCLINATION":87.9219,"RA_OF_ASC_NODE":60.5619,"ARG_OF_PERICENTER":50.6431,"MEAN_ANOMALY":309.4909,"EPHEMERIS_TYPE":0,"CLASSIFICATION_TYPE":"U","NORAD_CAT_ID":54142,"ELEMENT_SET_NO":999,"REV_AT_EPOCH":8236,"BSTAR":-2.0044e-5,"MEAN_MOTION_DOT":5.0e-8,"MEAN_MOTION_DDOT":0},{"OBJECT_NAME":"ONEWEB-0525","OBJECT_ID":"2022-138AG","EPOCH":"2024-06-12T19:11:58.632288","MEAN_MOTION":13.19725514,"ECCENTRICITY":0.0002361,"INCLINATION":87.9151,"RA_OF_ASC_NODE":91.1116,"ARG_OF_PERICENTER":84.232,"MEAN_ANOMALY":275.9082,"EPHEMERIS_TYPE":0,"CLASSIFICATION_TYPE":"U","NORAD_CAT_ID":54143,"ELEMENT_SET_NO":999,"REV_AT_EPOCH":7996,"BSTAR":0.00011744,"MEAN_MOTION_DOT":6.0e-7,"MEAN_MOTION_DDOT":0},{"OBJECT_NAME":"ONEWEB-0526","OBJECT_ID":"2022-138AH","EPOCH":"2024-06-12T19:59:44.697408","MEAN_MOTION":13.19724734,"ECCENTRICITY":0.0002202,"INCLINATION":87.9149,"RA_OF_ASC_NODE":91.1002,"ARG_OF_PERICENTER":78.5377,"MEAN_ANOMALY":281.6003,"EPHEMERIS_TYPE":0,"CLASSIFICATION_TYPE":"U","NORAD_CAT_ID":54144,"ELEMENT_SET_NO":999,"REV_AT_EPOCH":7994,"BSTAR":8.063e-5,"MEAN_MOTION_DOT":4.5e-7,"MEAN_MOTION_DDOT":0},{"OBJECT_NAME":"ONEWEB-0529","OBJECT_ID":"2022-138AJ","EPOCH":"2024-06-12T20:04:17.620320","MEAN_MOTION":13.19724723,"ECCENTRICITY":0.0002442,"INCLINATION":87.9157,"RA_OF_ASC_NODE":91.1142,"ARG_OF_PERICENTER":82.3749,"MEAN_ANOMALY":277.7661,"EPHEMERIS_TYPE":0,"CLASSIFICATION_TYPE":"U","NORAD_CAT_ID":54145,"ELEMENT_SET_NO":999,"REV_AT_EPOCH":7996,"BSTAR":6.5435e-5,"MEAN_MOTION_DOT":3.9e-7,"MEAN_MOTION_DDOT":0},{"OBJECT_NAME":"ONEWEB-0531","OBJECT_ID":"2022-138AK","EPOCH":"2024-06-12T18:29:23.805024","MEAN_MOTION":13.2077263,"ECCENTRICITY":0.0001625,"INCLINATION":87.922,"RA_OF_ASC_NODE":60.5555,"ARG_OF_PERICENTER":42.8019,"MEAN_ANOMALY":317.3241,"EPHEMERIS_TYPE":0,"CLASSIFICATION_TYPE":"U","NORAD_CAT_ID":54146,"ELEMENT_SET_NO":999,"REV_AT_EPOCH":8236,"BSTAR":-0.00022039,"MEAN_MOTION_DOT":-7.7e-7,"MEAN_MOTION_DDOT":0},{"OBJECT_NAME":"ONEWEB-0535","OBJECT_ID":"2022-138AL","EPOCH":"2024-06-12T20:52:03.478944","MEAN_MOTION":13.19727791,"ECCENTRICITY":0.0001837,"INCLINATION":87.9148,"RA_OF_ASC_NODE":91.0912,"ARG_OF_PERICENTER":72.2372,"MEAN_ANOMALY":287.8961,"EPHEMERIS_TYPE":0,"CLASSIFICATION_TYPE":"U","NORAD_CAT_ID":54147,"ELEMENT_SET_NO":999,"REV_AT_EPOCH":7998,"BSTAR":-1.0823e-5,"MEAN_MOTION_DOT":9.0e-8,"MEAN_MOTION_DDOT":0},{"OBJECT_NAME":"ONEWEB-0536","OBJECT_ID":"2022-138AM","EPOCH":"2024-06-12T18:11:13.816320","MEAN_MOTION":13.20772687,"ECCENTRICITY":0.0001003,"INCLINATION":87.9218,"RA_OF_ASC_NODE":60.6071,"ARG_OF_PERICENTER":54.5118,"MEAN_ANOMALY":305.6109,"EPHEMERIS_TYPE":0,"CLASSIFICATION_TYPE":"U","NORAD_CAT_ID":54148,"ELEMENT_SET_NO":999,"REV_AT_EPOCH":8235,"BSTAR":-7.1962e-6,"MEAN_MOTION_DOT":1.0e-7,"MEAN_MOTION_DDOT":0}]
